{
  "type": "FeatureCollection",
  "features": [
    {
      "type": "Feature",
      "properties": {
        "norad_id": 34962,
        "name": "COSMOS 2251 DEB",
        "group": "cosmos-2251-debris",
        "lat": -58.4701550881598,
        "lon": 43.20315881302771,
        "alt_km": 738.3696195839702,
        "timestamp": "2025-12-11T15:53:39.939416+00:00",
        "meta_object_name": "COSMOS 2251 DEB",
        "meta_object_id": "1993-036AER",
        "meta_epoch": "2025-12-10T13:52:41.169792",
        "meta_mean_motion": 14.46507093,
        "meta_eccentricity": 0.0018754,
        "meta_inclination": 74.0294,
        "meta_ra_of_asc_node": 197.4019,
        "meta_arg_of_pericenter": 310.673,
        "meta_mean_anomaly": 49.2798,
        "meta_ephemeris_type": 0,
        "meta_classification_type": "U",
        "meta_norad_cat_id": 34962,
        "meta_element_set_no": 999,
        "meta_rev_at_epoch": 87547,
        "meta_bstar": 0.00061582,
        "meta_mean_motion_dot": 2.195e-05,
        "meta_mean_motion_ddot": 0,
        "tle_line1": "1 34962U 93036AER 25344.57825428  .00002195  00000+0  61582-3 0  9995",
        "tle_line2": "2 34962  74.0294 197.4019 0018754 310.6730  49.2798 14.46507093875477"
      },
      "geometry": {
        "type": "Point",
        "coordinates": [
          43.20315881302771,
          -58.4701550881598
        ]
      }
    },
    {
      "type": "Feature",
      "properties": {
        "norad_id": 34963,
        "name": "COSMOS 2251 DEB",
        "group": "cosmos-2251-debris",
        "lat": 54.01180692848635,
        "lon": -158.2364580512211,
        "alt_km": 731.0316713360089,
        "timestamp": "2025-12-11T15:53:39.939427+00:00",
        "meta_object_name": "COSMOS 2251 DEB",
        "meta_object_id": "1993-036AES",
        "meta_epoch": "2025-12-08T12:52:00.806016",
        "meta_mean_motion": 14.51014391,
        "meta_eccentricity": 0.0042597,
        "meta_inclination": 74.1718,
        "meta_ra_of_asc_node": 50.5866,
        "meta_arg_of_pericenter": 247.8405,
        "meta_mean_anomaly": 111.8233,
        "meta_ephemeris_type": 0,
        "meta_classification_type": "U",
        "meta_norad_cat_id": 34963,
        "meta_element_set_no": 999,
        "meta_rev_at_epoch": 86740,
        "meta_bstar": 0.0019565,
        "meta_mean_motion_dot": 7.813e-05,
        "meta_mean_motion_ddot": 0,
        "tle_line1": "1 34963U 93036AES 25342.53612044  .00007813  00000+0  19565-2 0  9993",
        "tle_line2": "2 34963  74.1718  50.5866 0042597 247.8405 111.8233 14.51014391867405"
      },
      "geometry": {
        "type": "Point",
        "coordinates": [
          -158.2364580512211,
          54.01180692848635
        ]
      }
    },
    {
      "type": "Feature",
      "properties": {
        "norad_id": 34964,
        "name": "COSMOS 2251 DEB",
        "group": "cosmos-2251-debris",
        "lat": -19.5540355289456,
        "lon": -16.139849672050868,
        "alt_km": 997.0598278954931,
        "timestamp": "2025-12-11T15:53:39.939438+00:00",
        "meta_object_name": "COSMOS 2251 DEB",
        "meta_object_id": "1993-036AET",
        "meta_epoch": "2025-12-06T09:08:23.227296",
        "meta_mean_motion": 14.00561346,
        "meta_eccentricity": 0.02131727,
        "meta_inclination": 73.9719,
        "meta_ra_of_asc_node": 358.9078,
        "meta_arg_of_pericenter": 218.6047,
        "meta_mean_anomaly": 139.9683,
        "meta_ephemeris_type": 0,
        "meta_classification_type": "U",
        "meta_norad_cat_id": 34964,
        "meta_element_set_no": 999,
        "meta_rev_at_epoch": 84389,
        "meta_bstar": 0.0026176283,
        "meta_mean_motion_dot": 4.714e-05,
        "meta_mean_motion_ddot": 0,
        "tle_line1": "1 34964U 93036AET 25340.38082439  .00004714  00000+0  26176-2 0  9997",
        "tle_line2": "2 34964  73.9719 358.9078 0213172 218.6047 139.9683 14.00561346843899"
      },
      "geometry": {
        "type": "Point",
        "coordinates": [
          -16.139849672050868,
          -19.5540355289456
        ]
      }
    },
    {
      "type": "Feature",
      "properties": {
        "norad_id": 34965,
        "name": "COSMOS 2251 DEB",
        "group": "cosmos-2251-debris",
        "lat": -39.28580747500318,
        "lon": -35.98517937754559,
        "alt_km": 720.8748130160147,
        "timestamp": "2025-12-11T15:53:39.939452+00:00",
        "meta_object_name": "COSMOS 2251 DEB",
        "meta_object_id": "1993-036AEU",
        "meta_epoch": "2025-12-10T04:04:15.052224",
        "meta_mean_motion": 14.48695429,
        "meta_eccentricity": 0.00265264,
        "meta_inclination": 74.0504,
        "meta_ra_of_asc_node": 133.2783,
        "meta_arg_of_pericenter": 260.9335,
        "meta_mean_anomaly": 98.8822,
        "meta_ephemeris_type": 0,
        "meta_classification_type": "U",
        "meta_norad_cat_id": 34965,
        "meta_element_set_no": 999,
        "meta_rev_at_epoch": 87076,
        "meta_bstar": 0.00053021264,
        "meta_mean_motion_dot": 1.979e-05,
        "meta_mean_motion_ddot": 0,
        "tle_line1": "1 34965U 93036AEU 25344.16961866  .00001979  00000+0  53021-3 0  9998",
        "tle_line2": "2 34965  74.0504 133.2783 0026526 260.9335  98.8822 14.48695429870762"
      },
      "geometry": {
        "type": "Point",
        "coordinates": [
          -35.98517937754559,
          -39.28580747500318
        ]
      }
    },
    {
      "type": "Feature",
      "properties": {
        "norad_id": 34967,
        "name": "COSMOS 2251 DEB",
        "group": "cosmos-2251-debris",
        "lat": 29.035241812756063,
        "lon": 66.69988214434265,
        "alt_km": 750.6399619080066,
        "timestamp": "2025-12-11T15:53:39.939463+00:00",
        "meta_object_name": "COSMOS 2251 DEB",
        "meta_object_id": "1993-036AEW",
        "meta_epoch": "2025-12-11T01:54:29.105856",
        "meta_mean_motion": 14.44250286,
        "meta_eccentricity": 0.00379354,
        "meta_inclination": 73.9933,
        "meta_ra_of_asc_node": 256.9557,
        "meta_arg_of_pericenter": 43.5887,
        "meta_mean_anomaly": 316.8256,
        "meta_ephemeris_type": 0,
        "meta_classification_type": "U",
        "meta_norad_cat_id": 34967,
        "meta_element_set_no": 999,
        "meta_rev_at_epoch": 64933,
        "meta_bstar": 0.0010619117,
        "meta_mean_motion_dot": 3.655e-05,
        "meta_mean_motion_ddot": 0,
        "tle_line1": "1 34967U 93036AEW 25345.07950354  .00003655  00000+0  10619-2 0  9999",
        "tle_line2": "2 34967  73.9933 256.9557 0037935  43.5887 316.8256 14.44250286649338"
      },
      "geometry": {
        "type": "Point",
        "coordinates": [
          66.69988214434265,
          29.035241812756063
        ]
      }
    },
    {
      "type": "Feature",
      "properties": {
        "norad_id": 34968,
        "name": "COSMOS 2251 DEB",
        "group": "cosmos-2251-debris",
        "lat": -51.85856345066719,
        "lon": -132.25034363094582,
        "alt_km": 674.9951272851549,
        "timestamp": "2025-12-11T15:53:39.939472+00:00",
        "meta_object_name": "COSMOS 2251 DEB",
        "meta_object_id": "1993-036AEX",
        "meta_epoch": "2025-12-10T10:31:44.469696",
        "meta_mean_motion": 14.59400181,
        "meta_eccentricity": 0.00865269,
        "meta_inclination": 74.0391,
        "meta_ra_of_asc_node": 251.4552,
        "meta_arg_of_pericenter": 12.3996,
        "meta_mean_anomaly": 347.9269,
        "meta_ephemeris_type": 0,
        "meta_classification_type": "U",
        "meta_norad_cat_id": 34968,
        "meta_element_set_no": 999,
        "meta_rev_at_epoch": 88444,
        "meta_bstar": 0.00028935031,
        "meta_mean_motion_dot": 1.412e-05,
        "meta_mean_motion_ddot": 0,
        "tle_line1": "1 34968U 93036AEX 25344.43870914  .00001412  00000+0  28935-3 0  9992",
        "tle_line2": "2 34968  74.0391 251.4552 0086526  12.3996 347.9269 14.59400181884448"
      },
      "geometry": {
        "type": "Point",
        "coordinates": [
          -132.25034363094582,
          -51.85856345066719
        ]
      }
    },
    {
      "type": "Feature",
      "properties": {
        "norad_id": 34969,
        "name": "COSMOS 2251 DEB",
        "group": "cosmos-2251-debris",
        "lat": 36.52580493037032,
        "lon": -167.14392859127102,
        "alt_km": 730.658751621364,
        "timestamp": "2025-12-11T15:53:39.939526+00:00",
        "meta_object_name": "COSMOS 2251 DEB",
        "meta_object_id": "1993-036AEY",
        "meta_epoch": "2025-12-09T11:16:06.111552",
        "meta_mean_motion": 14.32248944,
        "meta_eccentricity": 0.00738203,
        "meta_inclination": 74.0146,
        "meta_ra_of_asc_node": 29.119,
        "meta_arg_of_pericenter": 163.1468,
        "meta_mean_anomaly": 197.2162,
        "meta_ephemeris_type": 0,
        "meta_classification_type": "U",
        "meta_norad_cat_id": 34969,
        "meta_element_set_no": 999,
        "meta_rev_at_epoch": 65090,
        "meta_bstar": 0.00049233942,
        "meta_mean_motion_dot": 1.343e-05,
        "meta_mean_motion_ddot": 0,
        "tle_line1": "1 34969U 93036AEY 25343.46951518  .00001343  00000+0  49234-3 0  9993",
        "tle_line2": "2 34969  74.0146  29.1190 0073820 163.1468 197.2162 14.32248944650905"
      },
      "geometry": {
        "type": "Point",
        "coordinates": [
          -167.14392859127102,
          36.52580493037032
        ]
      }
    }
  ]
}